GPS BIII-1              
1 43873U 18109A   26120.38991625  .00000002  00000+0  00000+0 0  9998
2 43873  55.6539  94.0711 0037977 198.8710 333.3582  2.00559587 54118
METEOR-M2 2             
1 44387U 19038A   26120.61754369  .00000006  00000+0  22643-4 0  9995
2 44387  98.9126 107.2063 0001856 118.2294 241.9072 14.24352168354529
GPS BIII-2              
1 44506U 19056A   26120.02602644 -.00000086  00000+0  00000+0 0  9998
2 44506  55.6588 333.0565 0059678 197.3377 334.4224  2.00569393 49108
BEIDOU-3 M24            
1 44542U 19061A   26119.91657215  .00000044  00000+0  00000+0 0  9997
2 44542  54.3942 184.3559 0008063   6.0417 354.0475  1.86229015 44895
BEIDOU-3 M23            
1 44543U 19061B   26120.58189586  .00000049  00000+0  00000+0 0  9999
2 44543  54.3929 184.3018 0005078 347.2728  10.7763  1.86227512 44907
BEIDOU-3 M22            
1 44793U 19078A   26117.60787963 -.00000068  00000+0  00000+0 0  9998
2 44793  53.9831 301.6060 0007316  46.0855 313.9683  1.86226945 43709
BEIDOU-3 M21            
1 44794U 19078B   26116.67401466 -.00000060  00000+0  00000+0 0  9998
2 44794  53.9566 301.6014 0005178  43.5795 316.4571  1.86227484 43694
ELEKTRO-L 3             
1 44903U 19095A   26120.57322916 -.00000094  00000+0  00000+0 0  9992
2 44903   0.1357  76.5379 0001237 309.5508 114.7330  1.00271798 23232
GPS BIII-3              
1 45854U 20041A   26120.12146036 -.00000107  00000+0  00000+0 0  9994
2 45854  56.6404  30.8083 0062323 205.0215 335.9373  2.00559897 43078
COSMOS 2547             
1 46805U 20075A   26118.67200962  .00000016  00000+0  00000+0 0  9992
2 46805  64.5969 194.1273 0008354 236.6399 123.3372  2.13100287 42853
GPS BIII-4              
1 46826U 20078A   26118.42633653 -.00000028  00000+0  00000+0 0  9992
2 46826  53.9877 212.7963 0071179 205.8633 165.9479  2.00564988 40512
GSAT0223 (GALILEO 27)   
1 49809U 21116A   26116.95302962 -.00000091  00000+0  00000+0 0  9992
2 49809  57.1768 343.0587 0000603 260.8560  95.4130  1.70475733 27303
GSAT0224 (GALILEO 28)   
1 49810U 21116B   26118.22861704 -.00000091  00000+0  00000+0 0  9990
2 49810  57.1765 343.0231 0000678  36.9401 134.7961  1.70475895 27359
GOES 18                 
1 51850U 22021A   26120.53102230  .00000099  00000+0  00000+0 0  9999
2 51850   0.0098   7.5379 0000636  84.0025 181.1000  1.00272949  6116
COSMOS 2557 (706K)      
1 52984U 22075A   26116.95964515 -.00000033  00000+0  00000+0 0  9999
2 52984  64.3278 316.2899 0010196 281.3644  78.5490  2.13101838 29622
METEOSAT-12 (MTG-I1)    
1 54743U 22170C   26120.34417633 -.00000006  00000+0  00000+0 0  9992
2 54743   0.7280  22.9701 0001096 346.8462 332.0241  1.00270613 12493
METEOR-M2 3             
1 57166U 23091A   26120.60109876  .00000006  00000+0  21367-4 0  9996
2 57166  98.6118 176.5441 0003062 322.2533  37.8431 14.24042599147748
COSMOS 2569 (703K)      
1 57517U 23114A   26118.98131208 -.00000024  00000+0  00000+0 0  9991
2 57517  65.2760  74.2787 0012340 295.4610  64.3807  2.13103805 21212
METEOR-M2 4             
1 59051U 24039A   26120.63214801  .00000003  00000+0  20900-4 0  9991
2 59051  98.6981  80.5374 0006265 314.9102  45.1567 14.22424403112502
GSAT0225 (GALILEO 29)   
1 59598U 24079A   26117.37270582  .00000040  00000+0  00000+0 0  9991
2 59598  55.0877 102.4982 0002631 284.7027  74.9137  1.70474432 12442
GSAT0227 (GALILEO 30)   
1 59600U 24079C   26119.90302948  .00000027  00000+0  00000+0 0  9993
2 59600  55.0849 102.4264 0001301  16.5164 343.4668  1.70474423 12548
GSAT0232 (GALILEO 32)   
1 61182U 24167A   26119.68189679 -.00000024  00000+0  00000+0 0  9996
2 61182  55.1992 222.6437 0005165 218.0644 221.7115  1.70474570 10059
GSAT0226 (GALILEO 31)   
1 61183U 24167B   26119.99015984 -.00000022  00000+0  00000+0 0  9996
2 61183  55.1979 222.6425 0001811 197.4384 162.8731  1.70474602 10030
GSAT0233 (GALILEO 33)   
1 67160U 25302A   26119.90787927  .00000028  00000+0  00000+0 0  9998
2 67160  54.3063 103.5047 0002076 244.1655 162.1299  1.70474584  2300
GSAT0234 (GALILEO 34)   
1 67162U 25302C   26117.48698374  .00000039  00000+0  00000+0 0  9990
2 67162  54.3058 103.5724 0003914 291.9910 248.6445  1.70474494  2318
